APRIZESAT 2             
1 28366U 04025A   26154.43830215  .00000154  00000+0  61454-4 0  9993
2 28366  98.1003 321.1979 0104352 291.8654  67.1463 14.38030504149661
SAUDICOMSAT 1           
1 28369U 04025D   26154.81693510  .00000456  00000+0  11546-3 0  9994
2 28369  98.5772 164.5878 0033296  65.4771 294.9891 14.55462296162184
SAUDICOMSAT 2           
1 28370U 04025E   26154.87585491  .00000311  00000+0  91698-4 0  9997
2 28370  98.6642 166.7451 0054264 300.6578  58.9272 14.49972985158170
APRIZESAT 1             
1 28372U 04025G   26154.57928426  .00000240  00000+0  71257-4 0  9995
2 28372  98.6305 164.9343 0044267 195.0322 164.9560 14.51770107159931
NANOSAT-1               
1 28493U 04049B   26154.31074790  .00001259  00000+0  17316-3 0  9999
2 28493  98.2259 290.6342 0003645 357.0148   3.1040 14.80130317153392
SAUDICOMSAT 7           
1 31119U 07012C   26154.73599602  .00000597  00000+0  11609-3 0  9994
2 31119  98.3772 128.5929 0054533 237.9679 121.6220 14.66096392 20464
SAUDICOMSAT 6           
1 31121U 07012E   26152.42354211  .00000830  00000+0  16783-3 0  9994
2 31121  98.4089 119.6479 0072224  16.9403 343.4185 14.62535493 17889
SAUDICOMSAT 5           
1 31124U 07012H   26154.72816403  .00000660  00000+0  12207-3 0  9996
2 31124  98.3483 129.3353 0047649 166.4066 193.8434 14.68140034 21627
SAUDICOMSAT 3           
1 31125U 07012J   26154.43994603  .00000985  00000+0  16842-3 0  9993
2 31125  98.3138 129.5910 0040504  95.2690 265.3139 14.70681681 22800
SAUDICOMSAT 4           
1 31127U 07012L   26154.76337527  .00000697  00000+0  13788-3 0  9993
2 31127  98.3976 127.0607 0062263 301.0451  58.4648 14.64497432 19328
APRIZESAT 4             
1 35684U 09041D   26154.16376698  .00000865  00000+0  10959-3 0  9999
2 35684  98.1413 229.2048 0043448   8.9660 351.2319 14.83859127909283
APRIZESAT 3             
1 35686U 09041F   26154.52314257  .00001788  00000+0  15817-3 0  9997
2 35686  98.2057 307.0943 0063033 111.6819 249.1129 14.96201835914336
S-NET D                 
1 43186U 18014G   26154.54043923  .00006087  00000+0  31519-3 0  9996
2 43186  97.5372  59.4172 0009938  70.8529 289.3779 15.16536098456694
S-NET B                 
1 43187U 18014H   26154.81555775  .00006108  00000+0  31648-3 0  9997
2 43187  97.5378  59.6766 0010461  65.8455 294.3871 15.16508833456737
S-NET A                 
1 43188U 18014J   26154.27546338  .00006127  00000+0  31718-3 0  9992
2 43188  97.5390  59.3462 0010427  67.9189 292.3150 15.16540722456653
S-NET C                 
1 43189U 18014K   26154.29149897  .00006053  00000+0  31370-3 0  9996
2 43189  97.5406  59.4346 0011645  61.0421 299.1978 15.16493858455201
SALSAT                  
1 46495U 20068K   26154.53943321  .00008826  00000+0  31028-3 0  9992
2 46495  97.8849 156.7757 0009424   1.6764 358.4505 15.29589697313273
OOV-CUBE (TUBSAT-30)    
1 60240U 24128F   26154.88050213  .00003041  00000+0  23717-3 0  9994
2 60240  61.9958 271.9701 0046281 130.8013 229.7107 15.02709877104117
LPNTSAT-001 (IOD-1)     
1 68408U 26065A   26154.63391755  .00003105  00000+0  15338-3 0  9993
2 68408  97.4031  35.4301 0017917  55.4405 304.8517 15.18461294 10208
